OBJECT_NAME,OBJECT_ID,EPOCH,MEAN_MOTION,ECCENTRICITY,INCLINATION,RA_OF_ASC_NODE,ARG_OF_PERICENTER,MEAN_ANOMALY,EPHEMERIS_TYPE,CLASSIFICATION_TYPE,NORAD_CAT_ID,ELEMENT_SET_NO,REV_AT_EPOCH,BSTAR,MEAN_MOTION_DOT,MEAN_MOTION_DDOT
LINGQIAO VIDEO A,2015-057B,2026-06-07T12:58:58.177632,14.77379267,.0015569,97.6623,153.8191,304.9547,55.0201,0,U,40959,999,57398,.11101E-3,.742E-5,0
LINGQIAO VIDEO B,2015-057C,2026-06-07T12:26:22.650144,14.77486876,.001572,97.6589,154.9639,305.1489,54.8249,0,U,40960,999,57402,.12126E-3,.817E-5,0
JILIN-1,2015-057D,2026-06-07T07:59:38.787648,14.78144760,.0015509,97.6506,158.1893,298.4094,61.5554,0,U,40961,999,57415,.14771E-3,.1022E-4,0
FOX-1A (AO-85),2015-058D,2026-06-06T14:53:26.022048,14.90916620,.01298912,64.7764,311.8208,60.7292,300.6731,0,U,40967,999,11199,.30157666E-3,.3329E-4,0
SINOD-D 1,2015-058E,2026-06-07T02:48:24.194016,14.95839766,.0118484,64.7760,290.4471,57.0968,304.1480,0,U,40968,999,11515,.33912E-3,.4197E-4,0
ELEKTRO-L 2,2015-074A,2026-06-07T01:22:35.395104,1.00272194,.0001291,6.6683,70.6461,283.5448,267.4428,0,U,41105,999,3840,0,-.104E-5,0
DAMPE,2015-078A,2026-06-07T13:25:17.535072,15.30760326,.0013624,97.4561,163.9795,106.4839,253.7900,0,U,41173,999,58307,.48022E-4,.1353E-4,0
ORBCOMM FM114,2015-081A,2026-06-07T09:22:05.859840,14.58847401,.0001912,47.0058,48.3219,164.9943,195.1000,0,U,41179,999,55632,.1587E-3,.579E-5,0
ORBCOMM FM110,2015-081D,2026-06-07T09:05:34.559808,14.58864970,.0002922,47.0029,47.8183,20.9160,339.1845,0,U,41182,999,55619,.21433E-3,.842E-5,0
ORBCOMM FM112,2015-081F,2026-06-07T03:27:14.491008,14.58889255,.0003078,47.0001,317.7383,173.0297,187.0632,0,U,41184,999,55748,.18077E-3,.684E-5,0
ORBCOMM FM113,2015-081G,2026-06-06T17:01:24.660480,14.58847509,.00016529,47.0018,320.1644,181.5263,178.5618,0,U,41185,999,55740,.15623209E-3,.567E-5,0
ORBCOMM FM108,2015-081J,2026-06-05T12:10:49.508544,14.58857926,.00023101,47.0046,237.4186,171.2053,188.8874,0,U,41187,999,55837,.18440415E-3,.7E-5,0
ORBCOMM FM117,2015-081K,2026-06-07T11:01:08.303232,14.58857481,.0002951,47.0005,226.8283,182.2940,177.7932,0,U,41188,999,55870,.16854E-3,.625E-5,0
ORBCOMM FM116,2015-081L,2026-06-07T03:58:38.254656,14.58868481,.0001126,47.0034,318.0050,0.2552,359.8334,0,U,41189,999,55747,.21284E-3,.835E-5,0
HORYU-4,2016-012D,2026-06-07T06:47:51.674208,15.88791967,.0002759,30.9849,151.3730,206.2539,153.7981,0,U,41340,999,56923,.10049E-2,.308228E-2,0
ZIYUAN 3-02 (ZY 3-02),2016-033A,2026-06-07T12:31:05.310336,15.21388569,.0011696,97.3832,234.4806,328.1226,31.9301,0,U,41556,999,55651,.25846E-3,.5738E-4,0
CARTOSAT-2C,2016-040A,2026-06-07T12:14:48.835680,15.19244337,.0009624,97.4482,218.6212,162.1324,198.0251,0,U,41599,999,55224,.29725E-3,.6204E-4,0
LAPAN-A3,2016-040E,2026-06-07T12:44:45.635136,15.33043689,.0011847,97.1490,154.9947,56.9581,303.2798,0,U,41603,999,55333,.11575E-3,.3626E-4,0
GAOFEN-3,2016-049A,2026-06-07T12:14:07.132992,14.42214626,.0001197,98.4014,166.4423,98.0342,262.0983,0,U,41727,999,51725,.50345E-4,.122E-5,0
CAS-2T & KS-1Q,2016-066G,2026-06-07T04:44:33.129024,14.44661881,.0342426,98.3816,234.0479,159.7048,201.8144,0,U,41847,999,50335,.29345E-3,.2042E-4,0
YUNHAI-1 01,2016-068A,2026-06-07T12:41:21.198912,14.32698938,.0006498,98.5834,169.6261,66.2412,293.9453,0,U,41857,999,50044,.14855E-3,.36E-5,0
RESOURCESAT-2A,2016-074A,2026-06-07T11:58:17.980608,14.21612695,.000334,98.7522,232.0823,101.4712,258.6840,0,U,41877,999,49292,-.26994E-4,-.103E-5,0
TANSAT,2016-081A,2026-06-07T12:23:38.090112,14.59943762,.0020305,98.5367,158.4888,343.1636,16.8887,0,U,41898,999,50321,.1397E-3,.621E-5,0
JILIN-1 03,2017-002B,2026-06-07T06:55:19.235712,15.41333103,.0005486,97.1952,165.5143,186.2268,173.8912,0,U,41914,999,52033,.32109E-3,.13317E-3,0
CARTOSAT-2D,2017-008A,2026-06-07T11:26:23.234784,15.19262570,.0003486,97.4111,217.9634,277.5278,82.5561,0,U,41948,999,51610,.25361E-3,.528E-4,0
